[Satellite]
VERSION=1.1
NAME=GLOBALSTAR M082 [+]
NICKNAME=GLOBALSTAR M082 [+]
TLE1=1 38042U 11080C   15054.30319586 -.00000087  00000-0  91056-4 0  9998
TLE2=2 38042  52.0076 311.7347 0000569  36.4715 124.0449 12.62263517147956
